0 BREEZE-M DEB
1 38950U 12044CK  13282.06266798  .00233760  91067-5  51161-2 0  2859
2 38950 050.2218 309.0889 1916684 122.5987 257.4517 11.65811873 38026
0 BREEZE-M DEB
1 38950U 12044CK  13282.49124248  .00238263  92749-5  52096-2 0  2869
2 38950 050.2217 307.8746 1915449 123.5859 256.2743 11.66083374 38071
0 BREEZE-M DEB
1 38950U 12044CK  13282.57693935  .00224131  87469-5  49067-2 0  2879
2 38950 050.2217 307.6316 1915320 123.7897 256.0318 11.66098856 38082
0 BREEZE-M DEB
1 38950U 12044CK  13283.17678032  .00211808  83069-5  46396-2 0  2889
2 38950 050.2215 305.9314 1914180 125.1850 254.3601 11.66335985 38158
0 BREEZE-M DEB
1 38950U 12044CK  13283.51948527  .00223592  87157-5  48992-2 0  2896
2 38950 050.2214 304.9590 1913628 125.9826 253.3994 11.66443010 38196
0 BREEZE-M DEB
1 38950U 12044CK  13284.11912980  .00203678  80221-5  44666-2 0  2901
2 38950 050.2212 303.2582 1912554 127.3764 251.7083 11.66666201 38269
0 BREEZE-M DEB
1 38950U 12044CK  13286.43090493  .00207565  81180-5  45550-2 0  2934
2 38950 050.2199 296.6953 1908161 132.7355 245.0758 11.67579065 38532
0 BREEZE-M DEB
1 38950U 12044CK  13287.45776376  .00224915  87070-5  49334-2 0  2945
2 38950 050.2197 293.7758 1906359 135.1220 242.0603 11.67957257 38658
0 BREEZE-M DEB
1 38950U 12044CK  13287.54332295  .00249858  96622-5  54719-2 0  2953
2 38950 050.2194 293.5330 1906177 135.3178 241.8108 11.68008316 38663
0 BREEZE-M DEB
1 38950U 12044CK  13288.39871217  .00269210  10462-4  58829-2 0  2967
2 38950 050.2189 291.1000 1904192 137.3020 239.2673 11.68450171 38767
0 BREEZE-M DEB
1 38950U 12044CK  13288.99729484  .00244173  94134-5  53347-2 0  2972
2 38950 050.2190 289.3953 1903094 138.7011 237.4616 11.68691518 38837
0 BREEZE-M DEB
1 38950U 12044CK  13289.42477769  .00240717  92708-5  52621-2 0  2987
2 38950 050.2192 288.1779 1902224 139.6933 236.1725 11.68868218 38884
0 BREEZE-M DEB
1 38950U 12044CK  13289.93766746  .00231964  89274-5  50678-2 0  2998
2 38950 050.2189 286.7172 1901322 140.8893 234.6118 11.69069082 38947
0 BREEZE-M DEB
1 38950U 12044CK  13290.45047774  .00183059  00000-0  39860-2 0  3009
2 38950 050.2206 285.2591 1899838 142.0875 233.0970 11.69321469 39005
0 BREEZE-M DEB
1 38950U 12044CK  13290.96315199  .00227448  87424-5  49653-2 0  3006
2 38950 050.2183 283.7951 1899086 143.2693 231.4763 11.69552008 39061
0 BREEZE-M DEB
1 38950U 12044CK  13292.41519462  .00237107  90787-5  51595-2 0  3015
2 38950 050.2170 279.6538 1896301 146.6493 226.9701 11.70178832 39235
0 BREEZE-M DEB
1 38950U 12044CK  13292.92749474  .00225374  86298-5  49003-2 0  3026
2 38950 050.2171 278.1913 1895399 147.8485 225.3567 11.70383853 39297
0 BREEZE-M DEB
1 38950U 12044CK  13293.95182756  .00226041  86334-5  49053-2 0  3033
2 38950 050.2168 275.2655 1893661 150.2417 222.1145 11.70775889 39412
0 BREEZE-M DEB
1 38950U 12044CK  13294.37852370  .00238649  90990-5  51771-2 0  3047
2 38950 050.2169 274.0465 1892808 151.2386 220.7545 11.70955749 39465
0 BREEZE-M DEB
1 38950U 12044CK  13294.89047244  .00220900  84282-5  47901-2 0  3059
2 38950 050.2168 272.5835 1891887 152.4362 219.1150 11.71161732 39524
0 BREEZE-M DEB
1 38950U 12044CK  13295.31702820  .00250039  95312-5  54230-2 0  3061
2 38950 050.2167 271.3653 1890853 153.4231 217.7570 11.71366753 39571
0 BREEZE-M DEB
1 38950U 12044CK  13295.91408308  .00238565  90648-5  51709-2 0  3077
2 38950 050.2168 269.6585 1889656 154.8197 215.8296 11.71631124 39640
